ENVISAT                 
1 27386U 02009A   25331.88664718  .00000168  00000+0  68164-4 0  9992
2 27386  98.3579 283.0056 0001251  82.1497 340.6479 14.38990712244538
IDEFIX & ARIANE 42P R/B 
1 27422U 02021B   25331.82927339  .00000369  00000+0  15690-3 0  9990
2 27422  98.5765 266.7154 0012679 123.9137 236.3254 14.30933482229455
AQUA                    
1 27424U 02022A   25331.96875062  .00001279  00000+0  26633-3 0  9993
2 27424  98.4018 292.6100 0000620  95.3698 305.2024 14.61754575253875
CZ-4B R/B               
1 27432U 02024C   25331.88430272  .00000051  00000+0  49565-4 0  9992
2 27432  98.9022  20.7064 0049359 312.9000 221.4273 14.14523115214841
MIDORI II (ADEOS-II)    
1 27597U 02056A   25331.87349330  .00000343  00000+0  15297-3 0  9990
2 27597  98.7615 284.7536 0000622  15.6193 344.5008 14.29190245195756
H-2A R/B                
1 27601U 02056E   25331.88366557  .00000372  00000+0  14465-3 0  9995
2 27601  98.3047 291.2340 0071468 104.6801 310.2731 14.33658537199524
CZ-4B R/B               
1 28059U 03049C   25331.87804699  .00000474  00000+0  12041-3 0  9990
2 28059  98.6780 317.8817 0048167 181.0464 179.0639 14.54888656171794
CZ-2C R/B               
1 28222U 04012C   25331.93678521  .00038756  00000+0  59289-3 0  9992
2 28222  97.7450  23.3499 0017538 327.7260  32.2918 15.54109506188425
SL-16 R/B               
1 28353U 04021B   25331.77171383  .00000057  00000+0  54563-4 0  9997
2 28353  71.0017  86.3741 0006008 217.5801 142.4902 14.14582173108429
CZ-4B R/B               
1 28415U 04035C   25331.62236583  .00009134  00000+0  34187-3 0  9993
2 28415  97.3632   2.1706 0032733 333.3203  26.6351 15.27021022164324
CZ-2C R/B               
1 28480U 04046B   25331.74285374  .00000222  00000+0  97158-4 0  9999
2 28480  98.1976 248.0539 0140728  96.2943 265.4289 14.26930550 93968
ARIANE 5 R/B            
1 28499U 04049H   25331.89606448  .00001102  00000+0  12871-3 0  9993
2 28499  98.2518 131.6462 0083848 321.6643  37.8629 14.84961503130680
