CCSDS_OMM_VERS = 2.0
CREATION_DATE  = 
ORIGINATOR     = 

OBJECT_NAME    = ENVISAT
OBJECT_ID      = 2002-009A
CENTER_NAME    = EARTH
REF_FRAME      = TEME
TIME_SYSTEM    = UTC
MEAN_ELEMENT_THEORY = SGP/SGP4

EPOCH          = 2025-11-27T21:16:46.316352
MEAN_MOTION    = 14.38990712
ECCENTRICITY   = .00012514
INCLINATION    = 98.3579
RA_OF_ASC_NODE = 283.0056
ARG_OF_PERICENTER = 82.1497
MEAN_ANOMALY   = 340.6479

EPHEMERIS_TYPE = 0
CLASSIFICATION_TYPE = U
NORAD_CAT_ID   = 27386
ELEMENT_SET_NO = 999
REV_AT_EPOCH   = 24453
BSTAR          = .68163717E-4
MEAN_MOTION_DOT = .168E-5
MEAN_MOTION_DDOT = 0

CCSDS_OMM_VERS = 2.0
CREATION_DATE  = 
ORIGINATOR     = 

OBJECT_NAME    = IDEFIX & ARIANE 42P R/B
OBJECT_ID      = 2002-021B
CENTER_NAME    = EARTH
REF_FRAME      = TEME
TIME_SYSTEM    = UTC
MEAN_ELEMENT_THEORY = SGP/SGP4

EPOCH          = 2025-11-27T19:54:09.220896
MEAN_MOTION    = 14.30933482
ECCENTRICITY   = .00126796
INCLINATION    = 98.5765
RA_OF_ASC_NODE = 266.7154
ARG_OF_PERICENTER = 123.9137
MEAN_ANOMALY   = 236.3254

EPHEMERIS_TYPE = 0
CLASSIFICATION_TYPE = U
NORAD_CAT_ID   = 27422
ELEMENT_SET_NO = 999
REV_AT_EPOCH   = 22945
BSTAR          = .15690307E-3
MEAN_MOTION_DOT = .369E-5
MEAN_MOTION_DDOT = 0

CCSDS_OMM_VERS = 2.0
CREATION_DATE  = 
ORIGINATOR     = 

OBJECT_NAME    = AQUA
OBJECT_ID      = 2002-022A
CENTER_NAME    = EARTH
REF_FRAME      = TEME
TIME_SYSTEM    = UTC
MEAN_ELEMENT_THEORY = SGP/SGP4

EPOCH          = 2025-11-27T23:15:00.053568
MEAN_MOTION    = 14.61754575
ECCENTRICITY   = .00006205
INCLINATION    = 98.4018
RA_OF_ASC_NODE = 292.6100
ARG_OF_PERICENTER = 95.3698
MEAN_ANOMALY   = 305.2024

EPHEMERIS_TYPE = 0
CLASSIFICATION_TYPE = U
NORAD_CAT_ID   = 27424
ELEMENT_SET_NO = 999
REV_AT_EPOCH   = 25387
BSTAR          = .26632631E-3
MEAN_MOTION_DOT = .1279E-4
MEAN_MOTION_DDOT = 0

CCSDS_OMM_VERS = 2.0
CREATION_DATE  = 
ORIGINATOR     = 

OBJECT_NAME    = CZ-4B R/B
OBJECT_ID      = 2002-024C
CENTER_NAME    = EARTH
REF_FRAME      = TEME
TIME_SYSTEM    = UTC
MEAN_ELEMENT_THEORY = SGP/SGP4

EPOCH          = 2025-11-27T21:13:23.755008
MEAN_MOTION    = 14.14523115
ECCENTRICITY   = .00493599
INCLINATION    = 98.9022
RA_OF_ASC_NODE = 20.7064
ARG_OF_PERICENTER = 312.9000
MEAN_ANOMALY   = 221.4273

EPHEMERIS_TYPE = 0
CLASSIFICATION_TYPE = U
NORAD_CAT_ID   = 27432
ELEMENT_SET_NO = 999
REV_AT_EPOCH   = 21484
BSTAR          = .49564981E-4
MEAN_MOTION_DOT = .51E-6
MEAN_MOTION_DDOT = 0

CCSDS_OMM_VERS = 2.0
CREATION_DATE  = 
ORIGINATOR     = 

OBJECT_NAME    = MIDORI II (ADEOS-II)
OBJECT_ID      = 2002-056A
CENTER_NAME    = EARTH
REF_FRAME      = TEME
TIME_SYSTEM    = UTC
MEAN_ELEMENT_THEORY = SGP/SGP4

EPOCH          = 2025-11-27T20:57:49.821120
MEAN_MOTION    = 14.29190245
ECCENTRICITY   = .00006224
INCLINATION    = 98.7615
RA_OF_ASC_NODE = 284.7536
ARG_OF_PERICENTER = 15.6193
MEAN_ANOMALY   = 344.5008

EPHEMERIS_TYPE = 0
CLASSIFICATION_TYPE = U
NORAD_CAT_ID   = 27597
ELEMENT_SET_NO = 999
REV_AT_EPOCH   = 19575
BSTAR          = .15296501E-3
MEAN_MOTION_DOT = .343E-5
MEAN_MOTION_DDOT = 0

CCSDS_OMM_VERS = 2.0
CREATION_DATE  = 
ORIGINATOR     = 

OBJECT_NAME    = H-2A R/B
OBJECT_ID      = 2002-056E
CENTER_NAME    = EARTH
REF_FRAME      = TEME
TIME_SYSTEM    = UTC
MEAN_ELEMENT_THEORY = SGP/SGP4

EPOCH          = 2025-11-27T21:12:28.705248
MEAN_MOTION    = 14.33658537
ECCENTRICITY   = .00714688
INCLINATION    = 98.3047
RA_OF_ASC_NODE = 291.2340
ARG_OF_PERICENTER = 104.6801
MEAN_ANOMALY   = 310.2731

EPHEMERIS_TYPE = 0
CLASSIFICATION_TYPE = U
NORAD_CAT_ID   = 27601
ELEMENT_SET_NO = 999
REV_AT_EPOCH   = 19952
BSTAR          = .14465105E-3
MEAN_MOTION_DOT = .372E-5
MEAN_MOTION_DDOT = 0

CCSDS_OMM_VERS = 2.0
CREATION_DATE  = 
ORIGINATOR     = 

OBJECT_NAME    = CZ-4B R/B
OBJECT_ID      = 2003-049C
CENTER_NAME    = EARTH
REF_FRAME      = TEME
TIME_SYSTEM    = UTC
MEAN_ELEMENT_THEORY = SGP/SGP4

EPOCH          = 2025-11-27T21:04:23.259936
MEAN_MOTION    = 14.54888656
ECCENTRICITY   = .00481672
INCLINATION    = 98.6780
RA_OF_ASC_NODE = 317.8817
ARG_OF_PERICENTER = 181.0464
MEAN_ANOMALY   = 179.0639

EPHEMERIS_TYPE = 0
CLASSIFICATION_TYPE = U
NORAD_CAT_ID   = 28059
ELEMENT_SET_NO = 999
REV_AT_EPOCH   = 17179
BSTAR          = .12041129E-3
MEAN_MOTION_DOT = .474E-5
MEAN_MOTION_DDOT = 0

CCSDS_OMM_VERS = 2.0
CREATION_DATE  = 
ORIGINATOR     = 

OBJECT_NAME    = CZ-2C R/B
OBJECT_ID      = 2004-012C
CENTER_NAME    = EARTH
REF_FRAME      = TEME
TIME_SYSTEM    = UTC
MEAN_ELEMENT_THEORY = SGP/SGP4

EPOCH          = 2025-11-27T22:28:58.242144
MEAN_MOTION    = 15.54109506
ECCENTRICITY   = .00175381
INCLINATION    = 97.7450
RA_OF_ASC_NODE = 23.3499
ARG_OF_PERICENTER = 327.7260
MEAN_ANOMALY   = 32.2918

EPHEMERIS_TYPE = 0
CLASSIFICATION_TYPE = U
NORAD_CAT_ID   = 28222
ELEMENT_SET_NO = 999
REV_AT_EPOCH   = 18842
BSTAR          = .59288526E-3
MEAN_MOTION_DOT = .38756E-3
MEAN_MOTION_DDOT = 0

CCSDS_OMM_VERS = 2.0
CREATION_DATE  = 
ORIGINATOR     = 

OBJECT_NAME    = SL-16 R/B
OBJECT_ID      = 2004-021B
CENTER_NAME    = EARTH
REF_FRAME      = TEME
TIME_SYSTEM    = UTC
MEAN_ELEMENT_THEORY = SGP/SGP4

EPOCH          = 2025-11-27T18:31:16.074912
MEAN_MOTION    = 14.14582173
ECCENTRICITY   = .00060081
INCLINATION    = 71.0017
RA_OF_ASC_NODE = 86.3741
ARG_OF_PERICENTER = 217.5801
MEAN_ANOMALY   = 142.4902

EPHEMERIS_TYPE = 0
CLASSIFICATION_TYPE = U
NORAD_CAT_ID   = 28353
ELEMENT_SET_NO = 999
REV_AT_EPOCH   = 10842
BSTAR          = .54562686E-4
MEAN_MOTION_DOT = .57E-6
MEAN_MOTION_DDOT = 0

CCSDS_OMM_VERS = 2.0
CREATION_DATE  = 
ORIGINATOR     = 

OBJECT_NAME    = CZ-4B R/B
OBJECT_ID      = 2004-035C
CENTER_NAME    = EARTH
REF_FRAME      = TEME
TIME_SYSTEM    = UTC
MEAN_ELEMENT_THEORY = SGP/SGP4

EPOCH          = 2025-11-27T14:56:12.407712
MEAN_MOTION    = 15.27021022
ECCENTRICITY   = .00327331
INCLINATION    = 97.3632
RA_OF_ASC_NODE = 2.1706
ARG_OF_PERICENTER = 333.3203
MEAN_ANOMALY   = 26.6351

EPHEMERIS_TYPE = 0
CLASSIFICATION_TYPE = U
NORAD_CAT_ID   = 28415
ELEMENT_SET_NO = 999
REV_AT_EPOCH   = 16432
BSTAR          = .34186625E-3
MEAN_MOTION_DOT = .9134E-4
MEAN_MOTION_DDOT = 0

CCSDS_OMM_VERS = 2.0
CREATION_DATE  = 
ORIGINATOR     = 

OBJECT_NAME    = CZ-2C R/B
OBJECT_ID      = 2004-046B
CENTER_NAME    = EARTH
REF_FRAME      = TEME
TIME_SYSTEM    = UTC
MEAN_ELEMENT_THEORY = SGP/SGP4

EPOCH          = 2025-11-27T17:49:42.563136
MEAN_MOTION    = 14.26930550
ECCENTRICITY   = .01407288
INCLINATION    = 98.1976
RA_OF_ASC_NODE = 248.0539
ARG_OF_PERICENTER = 96.2943
MEAN_ANOMALY   = 265.4289

EPHEMERIS_TYPE = 0
CLASSIFICATION_TYPE = U
NORAD_CAT_ID   = 28480
ELEMENT_SET_NO = 999
REV_AT_EPOCH   = 9396
BSTAR          = .97157936E-4
MEAN_MOTION_DOT = .222E-5
MEAN_MOTION_DDOT = 0

CCSDS_OMM_VERS = 2.0
CREATION_DATE  = 
ORIGINATOR     = 

OBJECT_NAME    = ARIANE 5 R/B
OBJECT_ID      = 2004-049H
CENTER_NAME    = EARTH
REF_FRAME      = TEME
TIME_SYSTEM    = UTC
MEAN_ELEMENT_THEORY = SGP/SGP4

EPOCH          = 2025-11-27T21:30:19.971072
MEAN_MOTION    = 14.84961503
ECCENTRICITY   = .00838483
INCLINATION    = 98.2518
RA_OF_ASC_NODE = 131.6462
ARG_OF_PERICENTER = 321.6643
MEAN_ANOMALY   = 37.8629

EPHEMERIS_TYPE = 0
CLASSIFICATION_TYPE = U
NORAD_CAT_ID   = 28499
ELEMENT_SET_NO = 999
REV_AT_EPOCH   = 13068
BSTAR          = .1287063E-3
MEAN_MOTION_DOT = .1102E-4
MEAN_MOTION_DDOT = 0

